FENGYUN 1C DEB          
1 32141U 99025CSK 17345.37986549  .00000364  00000-0  27364-3 0  9995
2 32141  99.0031  38.8682 0068632  60.1653 300.6310 13.99499231541166
